start=new Date('2023-06-13T00:00:00.000Z').valueOf();
sats=[{"REF_FRAME":"TEME","TIME_SYSTEM":"UTC","MEAN_MOTION":"15.02536832","CLASSIFICATION_TYPE":"U","ECCENTRICITY":"0.00013850","FILE":"3931605","SITE":"AFETR","PERIOD":"95.838","TLE_LINE1":"1 55457U 23015J   23163.88243164  .00000246  00000-0  33289-4 0  9999","GP_ID":"233804009","ELEMENT_SET_NO":"999","OBJECT_TYPE":"PAYLOAD","MEAN_MOTION_DDOT":"0.0000000000000","OBJECT_ID":"2023-015J","INCLINATION":"43.0048","EPOCH":"2023-06-12T21:10:42.093696","MEAN_ELEMENT_THEORY":"SGP4","NORAD_CAT_ID":"55457","COUNTRY_CODE":"US","APOAPSIS":"560.040","DECAY_DATE":null,"BSTAR":"0.00003328900000","RCS_SIZE":"LARGE","EPHEMERIS_TYPE":"0","LAUNCH_DATE":"2023-02-02","OBJECT_NAME":"STARLINK-5682","REV_AT_EPOCH":"2020","SEMIMAJOR_AXIS":"6937.214","TLE_LINE2":"2 55457  43.0048   4.3495 0001385 273.0496  87.0188 15.02536832 20201","RA_OF_ASC_NODE":"4.3495","MEAN_ANOMALY":"87.0188","ARG_OF_PERICENTER":"273.0496","MEAN_MOTION_DOT":"0.00000246","CENTER_NAME":"EARTH","PERIAPSIS":"558.118"},{"NORAD_CAT_ID":"55458","COUNTRY_CODE":"US","APOAPSIS":"560.006","DECAY_DATE":null,"OBJECT_NAME":"STARLINK-5020","REV_AT_EPOCH":"2020","SEMIMAJOR_AXIS":"6937.203","BSTAR":"0.00007333000000","RCS_SIZE":"LARGE","EPHEMERIS_TYPE":"0","LAUNCH_DATE":"2023-02-02","ARG_OF_PERICENTER":"273.8625","TLE_LINE2":"2 55458  43.0041   4.2441 0001352 273.8625  86.2063 15.02540265 20209","RA_OF_ASC_NODE":"4.2441","MEAN_ANOMALY":"86.2063","CENTER_NAME":"EARTH","PERIAPSIS":"558.130","MEAN_MOTION_DOT":"0.00000787","MEAN_MOTION":"15.02540265","REF_FRAME":"TEME","TIME_SYSTEM":"UTC","TLE_LINE1":"1 55458U 23015K   23163.86799912  .00000787  00000-0  73330-4 0  9996","PERIOD":"95.838","CLASSIFICATION_TYPE":"U","FILE":"3931605","ECCENTRICITY":"0.00013520","SITE":"AFETR","ELEMENT_SET_NO":"999","GP_ID":"233804254","MEAN_MOTION_DDOT":"0.0000000000000","OBJECT_ID":"2023-015K","INCLINATION":"43.0041","EPOCH":"2023-06-12T20:49:55.123968","MEAN_ELEMENT_THEORY":"SGP4","OBJECT_TYPE":"PAYLOAD"},{"SEMIMAJOR_AXIS":"6937.208","REV_AT_EPOCH":"2020","OBJECT_NAME":"STARLINK-5669","EPHEMERIS_TYPE":"0","LAUNCH_DATE":"2023-02-02","RCS_SIZE":"LARGE","BSTAR":"-0.00001193000000","DECAY_DATE":null,"APOAPSIS":"560.099","COUNTRY_CODE":"US","NORAD_CAT_ID":"55459","PERIAPSIS":"558.048","CENTER_NAME":"EARTH","MEAN_MOTION_DOT":"-0.00000365","ARG_OF_PERICENTER":"267.4442","MEAN_ANOMALY":"92.6232","RA_OF_ASC_NODE":"4.2865","TLE_LINE2":"2 55459  43.0053   4.2865 0001478 267.4442  92.6232 15.02538635 20205","PERIOD":"95.838","TLE_LINE1":"1 55459U 23015L   23163.87355092 -.00000365  00000-0 -11930-4 0  9997","SITE":"AFETR","FILE":"3931605","ECCENTRICITY":"0.00014780","CLASSIFICATION_TYPE":"U","MEAN_MOTION":"15.02538635","TIME_SYSTEM":"UTC","REF_FRAME":"TEME","MEAN_ELEMENT_THEORY":"SGP4","EPOCH":"2023-06-12T20:57:54.799488","INCLINATION":"43.0053","OBJECT_ID":"2023-015L","MEAN_MOTION_DDOT":"0.0000000000000","OBJECT_TYPE":"PAYLOAD","ELEMENT_SET_NO":"999","GP_ID":"233803507"},{"CENTER_NAME":"EARTH","PERIAPSIS":"558.180","MEAN_MOTION_DOT":"0.00000413","ARG_OF_PERICENTER":"275.2813","TLE_LINE2":"2 55460  43.0046   3.9008 0001285 275.2813  84.7883 15.02539362 20212","RA_OF_ASC_NODE":"3.9008","MEAN_ANOMALY":"84.7883","REV_AT_EPOCH":"2021","OBJECT_NAME":"STARLINK-5678","SEMIMAJOR_AXIS":"6937.206","BSTAR":"0.00004567600000","RCS_SIZE":"LARGE","EPHEMERIS_TYPE":"0","LAUNCH_DATE":"2023-02-02","NORAD_CAT_ID":"55460","COUNTRY_CODE":"US","DECAY_DATE":null,"APOAPSIS":"559.963","MEAN_MOTION_DDOT":"0.0000000000000","OBJECT_ID":"2023-015M","INCLINATION":"43.0046","EPOCH":"2023-06-12T22:28:50.704608","MEAN_ELEMENT_THEORY":"SGP4","OBJECT_TYPE":"PAYLOAD","ELEMENT_SET_NO":"999","GP_ID":"233803757","PERIOD":"95.838","TLE_LINE1":"1 55460U 23015M   23163.93669797  .00000413  00000-0  45676-4 0  9992","CLASSIFICATION_TYPE":"U","FILE":"3931605","ECCENTRICITY":"0.00012850","SITE":"AFETR","MEAN_MOTION":"15.02539362","REF_FRAME":"TEME","TIME_SYSTEM":"UTC"},{"REV_AT_EPOCH":"2021","OBJECT_NAME":"STARLINK-5646","SEMIMAJOR_AXIS":"6937.206","BSTAR":"0.00002823700000","RCS_SIZE":"LARGE","EPHEMERIS_TYPE":"0","LAUNCH_DATE":"2023-02-02","NORAD_CAT_ID":"55461","COUNTRY_CODE":"US","APOAPSIS":"559.993","DECAY_DATE":null,"CENTER_NAME":"EARTH","PERIAPSIS":"558.149","MEAN_MOTION_DOT":"0.00000178","ARG_OF_PERICENTER":"271.5862","TLE_LINE2":"2 55461  43.0050   3.9298 0001329 271.5862  88.4828 15.02539280 20210","RA_OF_ASC_NODE":"3.9298","MEAN_ANOMALY":"88.4828","PERIOD":"95.838","TLE_LINE1":"1 55461U 23015N   23163.94113816  .00000178  00000-0  28237-4 0  9992","CLASSIFICATION_TYPE":"U","FILE":"3931605","ECCENTRICITY":"0.00013290","SITE":"AFETR","MEAN_MOTION":"15.02539280","REF_FRAME":"TEME","TIME_SYSTEM":"UTC","MEAN_MOTION_DDOT":"0.0000000000000","OBJECT_ID":"2023-015N","INCLINATION":"43.0050","EPOCH":"2023-06-12T22:35:14.337024","MEAN_ELEMENT_THEORY":"SGP4","OBJECT_TYPE":"PAYLOAD","ELEMENT_SET_NO":"999","GP_ID":"233804509"},{"EPOCH":"2023-06-12T20:37:08.212512","MEAN_ELEMENT_THEORY":"SGP4","MEAN_MOTION_DDOT":"0.0000000000000","OBJECT_ID":"2023-015P","INCLINATION":"43.0044","OBJECT_TYPE":"PAYLOAD","ELEMENT_SET_NO":"999","GP_ID":"233774460","TLE_LINE1":"1 55462U 23015P   23163.85912283  .00000289  00000-0  36443-4 0  9999","PERIOD":"95.838","SITE":"AFETR","CLASSIFICATION_TYPE":"U","ECCENTRICITY":"0.00014270","FILE":"3931421","MEAN_MOTION":"15.02535481","TIME_SYSTEM":"UTC","REF_FRAME":"TEME","PERIAPSIS":"558.093","CENTER_NAME":"EARTH","MEAN_MOTION_DOT":"0.00000289","ARG_OF_PERICENTER":"271.8646","MEAN_ANOMALY":"88.2033","TLE_LINE2":"2 55462  43.0044   4.1728 0001427 271.8646  88.2033 15.02535481 20201","RA_OF_ASC_NODE":"4.1728","SEMIMAJOR_AXIS":"6937.218","OBJECT_NAME":"STARLINK-5673","REV_AT_EPOCH":"2020","RCS_SIZE":"LARGE","EPHEMERIS_TYPE":"0","LAUNCH_DATE":"2023-02-02","BSTAR":"0.00003644300000","COUNTRY_CODE":"US","APOAPSIS":"560.073","DECAY_DATE":null,"NORAD_CAT_ID":"55462"},{"MEAN_ANOMALY":"92.2818","RA_OF_ASC_NODE":"4.2147","TLE_LINE2":"2 55463  43.0042   4.2147 0001406 267.7863  92.2818 15.02537579 20204","ARG_OF_PERICENTER":"267.7863","MEAN_MOTION_DOT":"0.00000370","PERIAPSIS":"558.101","CENTER_NAME":"EARTH","APOAPSIS":"560.052","DECAY_DATE":null,"COUNTRY_CODE":"US","NORAD_CAT_ID":"55463","LAUNCH_DATE":"2023-02-02","EPHEMERIS_TYPE":"0","RCS_SIZE":"LARGE","BSTAR":"0.00004248500000","SEMIMAJOR_AXIS":"6937.212","OBJECT_NAME":"STARLINK-5677","REV_AT_EPOCH":"2020","GP_ID":"233803008","ELEMENT_SET_NO":"999","OBJECT_TYPE":"PAYLOAD","MEAN_ELEMENT_THEORY":"SGP4","EPOCH":"2023-06-12T20:45:07.621056","INCLINATION":"43.0042","OBJECT_ID":"2023-015Q","MEAN_MOTION_DDOT":"0.0000000000000","TIME_SYSTEM":"UTC","REF_FRAME":"TEME","MEAN_MOTION":"15.02537579","SITE":"AFETR","FILE":"3931605","ECCENTRICITY":"0.00014060","CLASSIFICATION_TYPE":"U","TLE_LINE1":"1 55463U 23015Q   23163.86467154  .00000370  00000-0  42485-4 0  9997","PERIOD":"95.838"},{"NORAD_CAT_ID":"55464","COUNTRY_CODE":"US","DECAY_DATE":null,"APOAPSIS":"560.029","REV_AT_EPOCH":"2021","OBJECT_NAME":"STARLINK-5676","SEMIMAJOR_AXIS":"6937.199","BSTAR":"-0.00000369160000","RCS_SIZE":"LARGE","LAUNCH_DATE":"2023-02-02","EPHEMERIS_TYPE":"0","ARG_OF_PERICENTER":"272.0215","TLE_LINE2":"2 55464  43.0053   3.7518 0001391 272.0215  88.0468 15.02541767 20215","RA_OF_ASC_NODE":"3.7518","MEAN_ANOMALY":"88.0468","CENTER_NAME":"EARTH","PERIAPSIS":"558.099","MEAN_MOTION_DOT":"-0.00000254","MEAN_MOTION":"15.02541767","REF_FRAME":"TEME","TIME_SYSTEM":"UTC","PERIOD":"95.838","TLE_LINE1":"1 55464U 23015R   23163.91782801 -.00000254  00000-0 -36916-5 0  9999","CLASSIFICATION_TYPE":"U","ECCENTRICITY":"0.00013910","FILE":"3931605","SITE":"AFETR","ELEMENT_SET_NO":"999","GP_ID":"233803258","MEAN_MOTION_DDOT":"0.0000000000000","OBJECT_ID":"2023-015R","INCLINATION":"43.0053","EPOCH":"2023-06-12T22:01:40.340064","MEAN_ELEMENT_THEORY":"SGP4","OBJECT_TYPE":"PAYLOAD"},{"CENTER_NAME":"EARTH","PERIAPSIS":"558.108","MEAN_MOTION_DOT":"0.00000652","ARG_OF_PERICENTER":"267.8413","RA_OF_ASC_NODE":"3.7866","TLE_LINE2":"2 55465  43.0047   3.7866 0001382 267.8413  92.2271 15.02540894 20216","MEAN_ANOMALY":"92.2271","REV_AT_EPOCH":"2021","OBJECT_NAME":"STARLINK-5674","SEMIMAJOR_AXIS":"6937.201","BSTAR":"0.00006330100000","LAUNCH_DATE":"2023-02-02","EPHEMERIS_TYPE":"0","RCS_SIZE":"LARGE","NORAD_CAT_ID":"55465","APOAPSIS":"560.025","DECAY_DATE":null,"COUNTRY_CODE":"US","INCLINATION":"43.0047","MEAN_MOTION_DDOT":"0.0000000000000","OBJECT_ID":"2023-015S","MEAN_ELEMENT_THEORY":"SGP4","EPOCH":"2023-06-12T22:08:03.849792","OBJECT_TYPE":"PAYLOAD","ELEMENT_SET_NO":"999","GP_ID":"233804010","TLE_LINE1":"1 55465U 23015S   23163.92226678  .00000652  00000-0  63301-4 0  9993","PERIOD":"95.838","ECCENTRICITY":"0.00013820","FILE":"3931605","CLASSIFICATION_TYPE":"U","SITE":"AFETR","MEAN_MOTION":"15.02540894","REF_FRAME":"TEME","TIME_SYSTEM":"UTC"},{"COUNTRY_CODE":"US","APOAPSIS":"560.007","DECAY_DATE":null,"NORAD_CAT_ID":"55466","RCS_SIZE":"LARGE","EPHEMERIS_TYPE":"0","LAUNCH_DATE":"2023-02-02","BSTAR":"0.00001068500000","SEMIMAJOR_AXIS":"6937.208","REV_AT_EPOCH":"2021","OBJECT_NAME":"STARLINK-5628","MEAN_ANOMALY":"101.4612","TLE_LINE2":"2 55466  43.0049   3.6673 0001347 258.6079 101.4612 15.02538843 20214","RA_OF_ASC_NODE":"3.6673","ARG_OF_PERICENTER":"258.6079","MEAN_MOTION_DOT":"-0.00000059","PERIAPSIS":"558.138","CENTER_NAME":"EARTH","TIME_SYSTEM":"UTC","REF_FRAME":"TEME","MEAN_MOTION":"15.02538843","SITE":"AFETR","CLASSIFICATION_TYPE":"U","ECCENTRICITY":"0.00013470","FILE":"3931605","PERIOD":"95.838","TLE_LINE1":"1 55466U 23015T   23163.90672928 -.00000059  00000-0  10685-4 0  9994","GP_ID":"233804255","ELEMENT_SET_NO":"999","OBJECT_TYPE":"PAYLOAD","EPOCH":"2023-06-12T21:45:41.409792","MEAN_ELEMENT_THEORY":"SGP4","MEAN_MOTION_DDOT":"0.0000000000000","OBJECT_ID":"2023-015T","INCLINATION":"43.0049"}];
